NORAD_CAT_ID,OBJECT_NAME,OBJECT_TYPE,EPOCH,MEAN_MOTION,ECCENTRICITY,INCLINATION,RA_OF_ASC_NODE,ARG_OF_PERICENTER,MEAN_ANOMALY,BSTAR,MEAN_MOTION_DOT,MEAN_MOTION_DDOT,TLE_LINE0,TLE_LINE1,TLE_LINE2,SEMIMAJOR_AXIS,PERIOD,APOGEE,PERIGEE,DECAYED
53003.0,STARLINK-4255,PAYLOAD,2023-09-10 01:37:34,15.0884853,0.0001371,53.2168,226.5496,94.3835,265.7314,6.8707e-05,8.06e-06,0.0,0 STARLINK-4255,1 53003U 22076T   23253.06775519  .00000806  00000-0  68707-4 0  9999,2 53003  53.2168 226.5496 0001371  94.3835 265.7314 15.08848530 65692,6917.854,95.437,540.668,538.771,0.0
53003.0,STARLINK-4255,PAYLOAD,2023-09-10 07:59:06,15.08851946,0.0001602,53.2172,225.3596,117.6724,242.4431,0.00010869,1.443e-05,0.0,0 STARLINK-4255,1 53003U 22076T   23253.33271052  .00001443  00000-0  10869-3 0  9995,2 53003  53.2172 225.3596 0001602 117.6724 242.4431 15.08851946 65268,6917.844,95.437,540.817,538.601,0.0
53003.0,STARLINK-4255,PAYLOAD,2023-09-11 03:03:45,15.08836984,0.0001456,53.2173,221.7918,98.2967,261.8191,6.3818e-05,7.28e-06,0.0,0 STARLINK-4255,1 53003U 22076T   23254.12760510  .00000728  00000-0  63818-4 0  9993,2 53003  53.2173 221.7918 0001456  98.2967 261.8191 15.08836984 65855,6917.89,95.438,540.762,538.747,0.0
53003.0,STARLINK-4255,PAYLOAD,2023-09-11 04:39:08,15.08836612,0.0001427,53.2162,221.4945,87.7362,272.3794,5.2787e-05,5.52e-06,0.0,0 STARLINK-4255,1 53003U 22076T   23254.19384449  .00000552  00000-0  52787-4 0  9991,2 53003  53.2162 221.4945 0001427  87.7362 272.3794 15.08836612 65393,6917.891,95.438,540.743,538.769,0.0
53003.0,STARLINK-4255,PAYLOAD,2023-09-12 02:54:31,15.08849872,0.0001429,53.2161,217.332,87.2433,272.8723,0.00019908,2.883e-05,0.0,0 STARLINK-4255,1 53003U 22076T   23255.12119842  .00002883  00000-0  19908-3 0  9994,2 53003  53.2161 217.3320 0001429  87.2433 272.8723 15.08849872 66007,6917.85,95.437,540.704,538.727,0.0
53003.0,STARLINK-4255,PAYLOAD,2023-09-12 07:40:40,15.08856104,0.0001439,53.2163,216.4396,85.7335,274.3821,0.00039548,6.014e-05,0.0,0 STARLINK-4255,1 53003U 22076T   23255.31991677  .00006014  00000-0  39548-3 0  9991,2 53003  53.2163 216.4396 0001439  85.7335 274.3821 15.08856104 65569,6917.831,95.437,540.692,538.701,0.0
53003.0,STARLINK-4255,PAYLOAD,2023-09-13 02:45:18,15.08847262,0.0001497,53.2164,212.869,90.6861,269.4303,0.00020282,2.942e-05,0.0,0 STARLINK-4255,1 53003U 22076T   23256.11479900  .00002942  00000-0  20282-3 0  9991,2 53003  53.2164 212.8690 0001497  90.6861 269.4303 15.08847262 66151,6917.858,95.437,540.759,538.688,0.0
53003.0,STARLINK-4255,PAYLOAD,2023-09-13 07:31:27,15.08862836,0.0001319,53.2147,211.9785,96.1016,264.0126,0.00053882,8.303e-05,0.0,0 STARLINK-4255,1 53003U 22076T   23256.31351341  .00008303  00000-0  53882-3 0  9990,2 53003  53.2147 211.9785 0001319  96.1016 264.0126 15.08862836 66184,6917.811,95.436,540.588,538.763,0.0
53003.0,STARLINK-4255,PAYLOAD,2023-09-14 02:36:05,15.08831296,0.0002052,53.217,208.4096,132.1492,227.9675,-9.1958e-06,-4.35e-06,0.0,0 STARLINK-4255,1 53003U 22076T   23257.10840131 -.00000435  00000-0 -91958-5 0  9996,2 53003  53.2170 208.4096 0002052 132.1492 227.9675 15.08831296 66307,6917.907,95.438,541.192,538.352,0.0
53003.0,STARLINK-4255,PAYLOAD,2023-09-14 05:46:52,15.0883095,0.0001454,53.2165,207.8156,90.5523,269.5635,-3.7285e-05,-8.81e-06,0.0,0 STARLINK-4255,1 53003U 22076T   23257.24088703 -.00000881  00000-0 -37285-4 0  9997,2 53003  53.2165 207.8156 0001454  90.5523 269.5635 15.08830950 65851,6917.908,95.438,540.779,538.767,0.0
53003.0,STARLINK-4255,PAYLOAD,2023-09-15 07:13:02,15.08853436,0.0001357,53.2161,203.0585,87.8184,272.2964,0.00080942,0.00012622,0.0,0 STARLINK-4255,1 53003U 22076T   23258.30072756  .00012622  00000-0  80942-3 0  9997,2 53003  53.2161 203.0585 0001357  87.8184 272.2964 15.08853436 66485,6917.839,95.437,540.643,538.766,0.0
53003.0,STARLINK-4255,PAYLOAD,2023-09-16 02:17:40,15.08850787,0.0001323,53.2158,199.4891,99.0498,261.0644,0.00029345,4.387e-05,0.0,0 STARLINK-4255,1 53003U 22076T   23259.09560468  .00004387  00000-0  29345-3 0  9995,2 53003  53.2158 199.4891 0001323  99.0498 261.0644 15.08850787 66606,6917.847,95.437,540.628,538.797,0.0
53003.0,STARLINK-4255,PAYLOAD,2023-09-16 05:28:26,15.08856895,0.0001383,53.2163,198.894,99.2773,260.8375,0.00041736,6.364e-05,0.0,0 STARLINK-4255,1 53003U 22076T   23259.22808237  .00006364  00000-0  41736-3 0  9994,2 53003  53.2163 198.8940 0001383  99.2773 260.8375 15.08856895 66158,6917.829,95.436,540.65,538.737,0.0
53003.0,STARLINK-4255,PAYLOAD,2023-09-17 02:08:27,15.08841136,0.0001469,53.2173,195.0296,91.3215,268.7946,2.9164e-05,1.76e-06,0.0,0 STARLINK-4255,1 53003U 22076T   23260.08920853  .00000176  00000-0  29164-4 0  9996,2 53003  53.2173 195.0296 0001469  91.3215 268.7946 15.08841136 66750,6917.877,95.437,540.758,538.726,0.0
53003.0,STARLINK-4255,PAYLOAD,2023-09-17 05:19:13,15.08846968,0.0001485,53.2178,194.433,97.9463,262.1698,9.245e-05,1.184e-05,0.0,0 STARLINK-4255,1 53003U 22076T   23260.22168658  .00001184  00000-0  92450-4 0  9997,2 53003  53.2178 194.4330 0001485  97.9463 262.1698 15.08846968 66303,6917.859,95.437,540.751,538.697,0.0
53003.0,STARLINK-4255,PAYLOAD,2023-09-18 05:10:00,15.08855587,0.0001474,53.2172,189.9728,101.2346,258.8812,0.00037223,5.644e-05,0.0,0 STARLINK-4255,1 53003U 22076T   23261.21528321  .00005644  00000-0  37223-3 0  9995,2 53003  53.2172 189.9728 0001474 101.2346 258.8812 15.08855587 66929,6917.833,95.437,540.717,538.678,0.0
53003.0,STARLINK-4255,PAYLOAD,2023-09-18 19:28:29,15.08846386,0.0001444,53.2171,187.2948,97.8591,262.2565,0.00025603,3.79e-05,0.0,0 STARLINK-4255,1 53003U 22076T   23261.81144770  .00003790  00000-0  25603-3 0  9992,2 53003  53.2171 187.2948 0001444  97.8591 262.2565 15.08846386 66541,6917.861,95.437,540.725,538.727,0.0
53003.0,STARLINK-4255,PAYLOAD,2023-09-19 01:50:01,15.08857563,0.0001426,53.2169,186.1071,87.9493,272.1662,0.00050569,7.773e-05,0.0,0 STARLINK-4255,1 53003U 22076T   23262.07640413  .00007773  00000-0  50569-3 0  9990,2 53003  53.2169 186.1071 0001426  87.9493 272.1662 15.08857563 67058,6917.827,95.436,540.678,538.705,0.0
53003.0,STARLINK-4255,PAYLOAD,2023-09-19 19:19:15,15.08850783,0.0001631,53.217,182.8364,73.1297,286.9874,0.00069328,0.00010766,0.0,0 STARLINK-4255,1 53003U 22076T   23262.80504305  .00010766  00000-0  69328-3 0  9999,2 53003  53.2170 182.8364 0001631  73.1297 286.9874 15.08850783 67162,6917.847,95.437,540.841,538.584,0.0
53003.0,STARLINK-4255,PAYLOAD,2023-09-20 00:05:24,15.0886551,0.0001414,53.2164,181.9428,97.403,262.7123,0.00084931,0.00013264,0.0,0 STARLINK-4255,1 53003U 22076T   23263.00375785  .00013264  00000-0  84931-3 0  9993,2 53003  53.2164 181.9428 0001414  97.4030 262.7123 15.08865510 67195,6917.802,95.436,540.646,538.689,0.0
53003.0,STARLINK-4255,PAYLOAD,2023-09-20 11:13:07,15.08842304,0.0002914,53.2168,179.8644,76.9604,283.1713,0.0004519,6.912e-05,0.0,0 STARLINK-4255,1 53003U 22076T   23263.46744589  .00006912  00000-0  45190-3 0  9991,2 53003  53.2168 179.8644 0002914  76.9604 283.1713 15.08842304 66793,6917.873,95.437,541.754,537.722,0.0
53003.0,STARLINK-4255,PAYLOAD,2023-09-20 19:10:03,15.08836803,0.0003961,53.2173,178.3776,76.7878,283.3555,0.00063415,9.818e-05,0.0,0 STARLINK-4255,1 53003U 22076T   23263.79865173  .00009818  00000-0  63415-3 0  9998,2 53003  53.2173 178.3776 0003961  76.7878 283.3555 15.08836803 67315,6917.89,95.438,542.495,537.015,0.0
53003.0,STARLINK-4255,PAYLOAD,2023-09-20 22:20:49,15.08807526,0.0001639,53.2175,177.7865,107.2777,252.8395,-0.00084538,-0.00013705,0.0,0 STARLINK-4255,1 53003U 22076T   23263.93113229 -.00013705  00000-0 -84538-3 0  9993,2 53003  53.2175 177.7865 0001639 107.2777 252.8395 15.08807526 66869,6917.98,95.44,540.979,538.711,0.0
53003.0,STARLINK-4255,PAYLOAD,2023-09-20 23:56:13,15.08803681,0.0001605,53.2172,177.4857,91.9255,268.1921,-0.00022139,-3.806e-05,0.0,0 STARLINK-4255,1 53003U 22076T   23263.99737606 -.00003806  00000-0 -22139-3 0  9990,2 53003  53.2172 177.4857 0001605  91.9255 268.1921 15.08803681 67344,6917.991,95.44,540.967,538.746,0.0
53003.0,STARLINK-4255,PAYLOAD,2023-09-21 03:06:59,15.08809491,0.0001472,53.217,176.8911,82.7849,277.331,0.0002648,3.925e-05,0.0,0 STARLINK-4255,1 53003U 22076T   23264.12985926  .00003925  00000-0  26480-3 0  9999,2 53003  53.2170 176.8911 0001472  82.7849 277.3310 15.08809491 66893,6917.974,95.439,540.857,538.82,0.0
53003.0,STARLINK-4255,PAYLOAD,2023-09-21 22:11:38,15.08841925,0.0001383,53.2166,173.3271,89.071,271.0441,0.0013967,0.00022012,0.0,0 STARLINK-4255,1 53003U 22076T   23264.92474854  .00022012  00000-0  13967-2 0  9993,2 53003  53.2166 173.3271 0001383  89.0710 271.0441 15.08841925 67016,6917.875,95.437,540.696,538.783,0.0
53003.0,STARLINK-4255,PAYLOAD,2023-09-22 01:22:24,15.08853186,0.0001312,53.2159,172.7285,80.9211,279.193,0.0017876,0.00028286,0.0,0 STARLINK-4255,1 53003U 22076T   23265.05722758  .00028286  00000-0  17876-2 0  9999,2 53003  53.2159 172.7285 0001312  80.9211 279.1930 15.08853186 67502,6917.84,95.437,540.613,538.797,0.0
53003.0,STARLINK-4255,PAYLOAD,2023-09-22 04:33:10,15.08860357,0.0001311,53.216,172.1335,82.6578,277.4563,0.0017309,0.00027382,0.0,0 STARLINK-4255,1 53003U 22076T   23265.18970569  .00027382  00000-0  17309-2 0  9995,2 53003  53.2160 172.1335 0001311  82.6578 277.4563 15.08860357 67059,6917.818,95.436,540.59,538.776,0.0
53003.0,STARLINK-4255,PAYLOAD,2023-09-22 22:02:24,15.08872519,0.000137,53.2162,168.8616,80.6299,279.4848,0.0013705,0.0002161,0.0,0 STARLINK-4255,1 53003U 22076T   23265.91833793  .00021610  00000-0  13705-2 0  9997,2 53003  53.2162 168.8616 0001370  80.6299 279.4848 15.08872519 67161,6917.781,95.435,540.594,538.698,0.0
53003.0,STARLINK-4255,PAYLOAD,2023-09-23 02:48:33,15.08883436,0.0001328,53.2161,167.9694,81.7122,278.4021,0.0015614,0.00024679,0.0,0 STARLINK-4255,1 53003U 22076T   23266.11705223  .00024679  00000-0  15614-2 0  9995,2 53003  53.2161 167.9694 0001328  81.7122 278.4021 15.08883436 67663,6917.748,95.435,540.531,538.694,0.0
